NORAD_CAT_ID,OBJECT_NAME,OBJECT_TYPE,EPOCH,MEAN_MOTION,ECCENTRICITY,INCLINATION,RA_OF_ASC_NODE,ARG_OF_PERICENTER,MEAN_ANOMALY,BSTAR,MEAN_MOTION_DOT,MEAN_MOTION_DDOT,TLE_LINE0,TLE_LINE1,TLE_LINE2,SEMIMAJOR_AXIS,PERIOD,APOGEE,PERIGEE,DECAYED
52993.0,STARLINK-4264,PAYLOAD,2024-07-04 15:39:14,15.08840471,0.0001069,53.2173,326.1535,85.424,274.6874,9.2303e-05,1.182e-05,0.0,0 STARLINK-4264,1 52993U 22076H   24186.65224591  .00001182  00000-0  92303-4 0  9993,2 52993  53.2173 326.1535 0001069  85.4240 274.6874 15.08840471110294,6917.879,95.438,540.483,539.004,0.0
52993.0,STARLINK-4264,PAYLOAD,2024-07-05 02:46:55,15.08846261,0.0001067,53.2173,324.0728,92.649,267.4624,6.5366e-05,7.53e-06,0.0,0 STARLINK-4264,1 52993U 22076H   24187.11592165  .00000753  00000-0  65366-4 0  9992,2 52993  53.2173 324.0728 0001067  92.6490 267.4624 15.08846261110836,6917.861,95.437,540.464,538.988,0.0
52993.0,STARLINK-4264,PAYLOAD,2024-07-05 12:19:15,15.0883832,0.000128,53.2181,322.2887,93.4759,266.6379,5.1719e-05,5.35e-06,0.0,0 STARLINK-4264,1 52993U 22076H   24187.51336888  .00000535  00000-0  51719-4 0  9999,2 52993  53.2181 322.2887 0001280  93.4759 266.6379 15.08838320110896,6917.886,95.438,540.636,538.865,0.0
52993.0,STARLINK-4264,PAYLOAD,2024-07-05 13:54:37,15.08844985,0.0001375,53.2188,321.9904,91.6586,268.4564,4.4248e-05,4.16e-06,0.0,0 STARLINK-4264,1 52993U 22076H   24187.57960537  .00000416  00000-0  44248-4 0  9996,2 52993  53.2188 321.9904 0001375  91.6586 268.4564 15.08844985110432,6917.865,95.437,540.681,538.779,0.0
52993.0,STARLINK-4264,PAYLOAD,2024-07-05 15:30:00,15.08847647,0.0001375,53.2186,321.6922,97.5158,262.5991,5.5951e-05,6.03e-06,0.0,0 STARLINK-4264,1 52993U 22076H   24187.64584275  .00000603  00000-0  55951-4 0  9996,2 52993  53.2186 321.6922 0001375  97.5158 262.5991 15.08847647110917,6917.857,95.437,540.673,538.771,0.0
52993.0,STARLINK-4264,PAYLOAD,2024-07-06 12:10:01,15.0884612,0.0001721,53.2188,317.8256,101.0542,259.0644,-8.508e-05,-1.642e-05,0.0,0 STARLINK-4264,1 52993U 22076H   24188.50696725 -.00001642  00000-0 -85080-4 0  9998,2 52993  53.2188 317.8256 0001721 101.0542 259.0644 15.08846120111045,6917.862,95.437,540.917,538.536,0.0
52993.0,STARLINK-4264,PAYLOAD,2024-07-06 13:45:24,15.08854034,0.0001743,53.2186,317.5284,99.0428,261.0761,-0.00018924,-3.3e-05,0.0,0 STARLINK-4264,1 52993U 22076H   24188.57320440 -.00003300  00000-0 -18924-3 0  9998,2 52993  53.2186 317.5284 0001743  99.0428 261.0761 15.08854034110588,6917.837,95.437,540.908,538.497,0.0
52993.0,STARLINK-4264,PAYLOAD,2024-07-06 15:20:48,15.08839434,0.0001221,53.2178,317.2334,91.7986,268.3146,8.5591e-06,-1.52e-06,0.0,0 STARLINK-4264,1 52993U 22076H   24188.63944877 -.00000152  00000-0  85591-5 0  9998,2 52993  53.2178 317.2334 0001221  91.7986 268.3146 15.08839434110596,6917.882,95.438,540.592,538.902,0.0
52993.0,STARLINK-4264,PAYLOAD,2024-07-07 08:50:03,15.08834902,0.0001109,53.217,313.9625,89.5046,270.6074,2.2955e-05,7.8e-07,0.0,0 STARLINK-4264,1 52993U 22076H   24189.36809142  .00000078  00000-0  22955-4 0  9994,2 52993  53.2170 313.9625 0001109  89.5046 270.6074 15.08834902111177,6917.896,95.438,540.528,538.994,0.0
52993.0,STARLINK-4264,PAYLOAD,2024-07-07 18:22:21,15.08849289,0.0001215,53.2172,312.1783,91.8808,268.2324,2.7659e-05,1.52e-06,0.0,0 STARLINK-4264,1 52993U 22076H   24189.76552262  .00000152  00000-0  27659-4 0  9995,2 52993  53.2172 312.1783 0001215  91.8808 268.2324 15.08849289111237,6917.852,95.437,540.558,538.876,0.0
52993.0,STARLINK-4264,PAYLOAD,2024-07-08 13:26:59,15.0883881,0.0001384,53.2195,308.608,90.8849,269.2301,5.1917e-05,5.38e-06,0.0,0 STARLINK-4264,1 52993U 22076H   24190.56041032  .00000538  00000-0  51917-4 0  9995,2 52993  53.2195 308.6080 0001384  90.8849 269.2301 15.08838810111350,6917.884,95.438,540.706,538.792,0.0
52993.0,STARLINK-4264,PAYLOAD,2024-07-08 15:02:22,15.08840339,0.0001348,53.2187,308.3153,92.6498,267.4648,9.2754e-05,1.189e-05,0.0,0 STARLINK-4264,1 52993U 22076H   24190.62664839  .00001189  00000-0  92754-4 0  9995,2 52993  53.2187 308.3153 0001348  92.6498 267.4648 15.08840339110890,6917.879,95.438,540.677,538.812,0.0
52993.0,STARLINK-4264,PAYLOAD,2024-07-09 13:17:46,15.08841306,0.000139,53.2186,304.1534,100.4392,259.6757,5.3105e-05,5.57e-06,0.0,0 STARLINK-4264,1 52993U 22076H   24191.55400992  .00000557  00000-0  53105-4 0  9991,2 52993  53.2186 304.1534 0001390 100.4392 259.6757 15.08841306111030,6917.876,95.437,540.703,538.78,0.0
52993.0,STARLINK-4264,PAYLOAD,2024-07-09 16:28:32,15.08846358,0.0001393,53.219,303.5572,91.5983,268.5168,0.00010373,1.364e-05,0.0,0 STARLINK-4264,1 52993U 22076H   24191.68648539  .00001364  00000-0  10373-3 0  9992,2 52993  53.2190 303.5572 0001393  91.5983 268.5168 15.08846358111520,6917.861,95.437,540.69,538.762,0.0
52993.0,STARLINK-4264,PAYLOAD,2024-07-10 00:25:28,15.08841324,0.0001292,53.2182,302.0681,97.9152,262.1986,-2.4748e-05,-6.82e-06,0.0,0 STARLINK-4264,1 52993U 22076H   24192.01769008 -.00000682  00000-0 -24748-4 0  9991,2 52993  53.2182 302.0681 0001292  97.9152 262.1986 15.08841324111573,6917.876,95.437,540.635,538.848,0.0
52993.0,STARLINK-4264,PAYLOAD,2024-07-10 11:33:10,15.08840661,0.000138,53.2187,299.9875,95.7806,264.3344,2.4941e-05,1.09e-06,0.0,0 STARLINK-4264,1 52993U 22076H   24192.48137081  .00000109  00000-0  24941-4 0  9999,2 52993  53.2187 299.9875 0001380  95.7806 264.3344 15.08840661111178,6917.878,95.438,540.698,538.789,0.0
52993.0,STARLINK-4264,PAYLOAD,2024-07-11 14:34:44,15.08840371,0.0001182,53.2176,294.9302,89.8499,270.2628,-4.6406e-05,-1.026e-05,0.0,0 STARLINK-4264,1 52993U 22076H   24193.60745576 -.00001026  00000-0 -46406-4 0  9999,2 52993  53.2176 294.9302 0001182  89.8499 270.2628 15.08840371111346,6917.879,95.438,540.562,538.927,0.0
52993.0,STARLINK-4264,PAYLOAD,2024-07-12 12:50:07,15.088419,0.0001231,53.2177,290.7689,81.6049,278.5082,0.00014009,1.942e-05,0.0,0 STARLINK-4264,1 52993U 22076H   24194.53481093  .00001942  00000-0  14009-3 0  9991,2 52993  53.2177 290.7689 0001231  81.6049 278.5082 15.08841900111484,6917.875,95.437,540.591,538.888,0.0
52993.0,STARLINK-4264,PAYLOAD,2024-07-12 23:57:49,15.08843259,0.000123,53.2176,288.6874,81.0915,279.0216,0.00012519,1.705e-05,0.0,0 STARLINK-4264,1 52993U 22076H   24194.99849032  .00001705  00000-0  12519-3 0  9993,2 52993  53.2176 288.6874 0001230  81.0915 279.0216 15.08843259112025,6917.87,95.437,540.586,538.885,0.0
52993.0,STARLINK-4264,PAYLOAD,2024-07-13 12:40:54,15.08844086,0.0001354,53.2181,286.3077,92.5201,267.5946,0.00011154,1.488e-05,0.0,0 STARLINK-4264,1 52993U 22076H   24195.52841038  .00001488  00000-0  11154-3 0  9993,2 52993  53.2181 286.3077 0001354  92.5201 267.5946 15.08844086111630,6917.868,95.437,540.67,538.796,0.0
52993.0,STARLINK-4264,PAYLOAD,2024-07-13 15:51:40,15.08845651,0.000135,53.2168,285.7117,94.5554,265.5593,0.00010833,1.437e-05,0.0,0 STARLINK-4264,1 52993U 22076H   24195.66088886  .00001437  00000-0  10833-3 0  9999,2 52993  53.2168 285.7117 0001350  94.5554 265.5593 15.08845651111659,6917.863,95.437,540.662,538.794,0.0
52993.0,STARLINK-4264,PAYLOAD,2024-07-14 12:31:41,15.08845118,0.000133,53.2177,281.8482,95.5284,264.586,1.6826e-05,-2e-07,0.0,0 STARLINK-4264,1 52993U 22076H   24196.52201235 -.00000020  00000-0  16826-4 0  9997,2 52993  53.2177 281.8482 0001330  95.5284 264.5860 15.08845118112251,6917.865,95.437,540.65,538.81,0.0
52993.0,STARLINK-4264,PAYLOAD,2024-07-15 12:22:28,15.08846808,0.0001268,53.2173,277.3878,93.6639,266.4498,5.2214e-05,5.43e-06,0.0,0 STARLINK-4264,1 52993U 22076H   24197.51561017  .00000543  00000-0  52214-4 0  9994,2 52993  53.2173 277.3878 0001268  93.6639 266.4498 15.08846808111938,6917.86,95.437,540.602,538.847,0.0
52993.0,STARLINK-4264,PAYLOAD,2024-07-15 21:54:47,15.08842667,0.0001212,53.2168,275.6043,89.8333,270.2798,-5.2533e-05,-1.124e-05,0.0,0 STARLINK-4264,1 52993U 22076H   24197.91305372 -.00001124  00000-0 -52533-4 0  9990,2 52993  53.2168 275.6043 0001212  89.8333 270.2798 15.08842667111995,6917.872,95.437,540.576,538.899,0.0
52993.0,STARLINK-4264,PAYLOAD,2024-07-16 05:51:43,15.08835088,0.0001338,53.2175,274.1174,94.4778,265.6367,2.6001e-05,1.26e-06,0.0,0 STARLINK-4264,1 52993U 22076H   24198.24425900  .00000126  00000-0  26001-4 0  9997,2 52993  53.2175 274.1174 0001338  94.4778 265.6367 15.08835088112514,6917.895,95.438,540.686,538.835,0.0
52993.0,STARLINK-4264,PAYLOAD,2024-07-16 12:13:15,15.08842861,0.0001469,53.2184,272.9283,99.0373,261.0786,7.5074e-05,9.07e-06,0.0,0 STARLINK-4264,1 52993U 22076H   24198.50921274  .00000907  00000-0  75074-4 0  9992,2 52993  53.2184 272.9283 0001469  99.0373 261.0786 15.08842861112082,6917.872,95.437,540.753,538.72,0.0
52993.0,STARLINK-4264,PAYLOAD,2024-07-17 04:07:08,15.08833971,0.0001411,53.2173,269.9535,88.6234,271.4919,-1.1953e-05,-4.78e-06,0.0,0 STARLINK-4264,1 52993U 22076H   24199.17162376 -.00000478  00000-0 -11953-4 0  9997,2 52993  53.2173 269.9535 0001411  88.6234 271.4919 15.08833971112651,6917.899,95.438,540.74,538.788,0.0
52993.0,STARLINK-4264,PAYLOAD,2024-07-17 12:04:04,15.08834013,0.0001405,53.2173,268.4667,81.6113,278.5039,-8.2764e-06,-4.2e-06,0.0,0 STARLINK-4264,1 52993U 22076H   24199.50282670 -.00000420  00000-0 -82764-5 0  9990,2 52993  53.2173 268.4667 0001405  81.6113 278.5039 15.08834013112236,6917.899,95.438,540.736,538.792,0.0
52993.0,STARLINK-4264,PAYLOAD,2024-07-18 11:54:50,15.08851995,0.0001389,53.2167,264.0046,90.536,269.5792,0.00015618,2.199e-05,0.0,0 STARLINK-4264,1 52993U 22076H   24200.49641456  .00002199  00000-0  15618-3 0  9997,2 52993  53.2167 264.0046 0001389  90.5360 269.5792 15.08851995112858,6917.844,95.437,540.67,538.748,0.0
52993.0,STARLINK-4264,PAYLOAD,2024-07-19 11:45:38,15.08839674,0.0001348,53.217,259.5437,96.6084,263.5061,0.00016126,2.279e-05,0.0,0 STARLINK-4264,1 52993U 22076H   24201.49002439  .00002279  00000-0  16126-3 0  9994,2 52993  53.2170 259.5437 0001348  96.6084 263.5061 15.08839674113001,6917.881,95.438,540.679,538.814,0.0
